[{"OBJECT_NAME":"GRUS-1A","OBJECT_ID":"2018-111Q","EPOCH":"2026-03-09T23:18:05.956128","MEAN_MOTION":14.98893897,"ECCENTRICITY":0.00097781,"INCLINATION":97.4655,"RA_OF_ASC_NODE":300.3513,"ARG_OF_PERICENTER":128.8058,"MEAN_ANOMALY":231.404,"EPHEMERIS_TYPE":0,"CLASSIFICATION_TYPE":"U","NORAD_CAT_ID":43890,"ELEMENT_SET_NO":999,"REV_AT_EPOCH":39284,"BSTAR":0.00022419467,"MEAN_MOTION_DOT":2.655e-5,"MEAN_MOTION_DDOT":0},{"OBJECT_NAME":"STARLINK-5897","OBJECT_ID":"2023-037T","EPOCH":"2026-03-09T23:17:46.995648","MEAN_MOTION":14.98333859,"ECCENTRICITY":0.00032886,"INCLINATION":69.9985,"RA_OF_ASC_NODE":303.5706,"ARG_OF_PERICENTER":272.7263,"MEAN_ANOMALY":87.352,"EPHEMERIS_TYPE":0,"CLASSIFICATION_TYPE":"U","NORAD_CAT_ID":55931,"ELEMENT_SET_NO":999,"REV_AT_EPOCH":16353,"BSTAR":5.1350876e-5,"MEAN_MOTION_DOT":5.2e-6,"MEAN_MOTION_DDOT":0}]
